GLOBALSTAR M024 [-]     
1 25883U 99043A   24004.68088421 -.00000116  00000+0 -18299-2 0  9998
2 25883  52.0000 135.3562 0000470 340.5906 122.6178 11.10155730 56055
GLOBALSTAR M027 [-]     
1 25884U 99043B   24004.81617338 -.00000074  00000+0 -37973-3 0  9993
2 25884  52.0172 198.0419 0020463 213.9980 145.9503 11.04367197 82753
GLOBALSTAR M054 [-]     
1 25885U 99043C   24004.43122628 -.00000077  00000+0 -15826-3 0  9991
2 25885  52.0158  55.0957 0003963 342.8203 116.6769 11.39202608 58679
GLOBALSTAR M053 [-]     
1 25886U 99043D   24004.86847632 -.00000060  00000+0  23982-3 0  9991
2 25886  52.0013 331.7804 0003158 268.9020 110.3570 11.27652768 59738
GLOBALSTAR M058 [-]     
1 25907U 99049A   24004.95751465 -.00000073  00000+0  14705-3 0  9996
2 25907  51.9949  82.3218 0001809 339.2225  20.8536 11.93171964 89575
GLOBALSTAR M050 [-]     
1 25908U 99049B   24004.76180337  .00000030  00000+0  13332-2 0  9996
2 25908  51.9979 130.0717 0009621  62.5956  85.5726 12.07425982 84236
GLOBALSTAR M033 [-]     
1 25909U 99049C   24005.20992936 -.00000115  00000+0 -22124-3 0  9999
2 25909  51.9932  37.2131 0011401 263.7339  96.2210 12.20261154103887
GLOBALSTAR M055 [-]     
1 25910U 99049D   24004.57678595 -.00000086  00000+0  67212-4 0  9996
2 25910  52.0028  75.5135 0007622 114.2735 245.8914 12.29392786103367
